{
  "type": "FeatureCollection",
  "features": [
    {
      "type": "Feature",
      "properties": {
        "norad_id": 30366,
        "name": "FENGYUN 1C DEB",
        "group": "fengyun-1c-debris",
        "lat": -53.99479239151506,
        "lon": -92.6478260893768,
        "alt_km": 763.9487789894056,
        "timestamp": "2025-12-03T15:48:03.347256+00:00",
        "meta_object_name": "FENGYUN 1C DEB",
        "meta_object_id": "1999-025ACD",
        "meta_epoch": "2025-12-03T01:02:18.254112",
        "meta_mean_motion": 14.33438055,
        "meta_eccentricity": 0.00619858,
        "meta_inclination": 98.9223,
        "meta_ra_of_asc_node": 254.2335,
        "meta_arg_of_pericenter": 248.2281,
        "meta_mean_anomaly": 123.8891,
        "meta_ephemeris_type": 0,
        "meta_classification_type": "U",
        "meta_norad_cat_id": 30366,
        "meta_element_set_no": 999,
        "meta_rev_at_epoch": 98184,
        "meta_bstar": 0.00072468223,
        "meta_mean_motion_dot": 1.997e-05,
        "meta_mean_motion_ddot": 0,
        "tle_line1": "1 30366U 99025ACD 25337.04326683  .00001997  00000+0  72468-3 0  9990",
        "tle_line2": "2 30366  98.9223 254.2335 0061985 248.2281 123.8891 14.33438055981841"
      },
      "geometry": {
        "type": "Point",
        "coordinates": [
          -92.6478260893768,
          -53.99479239151506
        ]
      }
    },
    {
      "type": "Feature",
      "properties": {
        "norad_id": 30368,
        "name": "FENGYUN 1C DEB",
        "group": "fengyun-1c-debris",
        "lat": -49.82224643709449,
        "lon": 94.95656805953313,
        "alt_km": 860.5389442285559,
        "timestamp": "2025-12-03T15:48:03.347265+00:00",
        "meta_object_name": "FENGYUN 1C DEB",
        "meta_object_id": "1999-025ACF",
        "meta_epoch": "2025-12-03T05:42:08.756640",
        "meta_mean_motion": 13.75351562,
        "meta_eccentricity": 0.01861074,
        "meta_inclination": 99.1887,
        "meta_ra_of_asc_node": 83.4997,
        "meta_arg_of_pericenter": 333.2228,
        "meta_mean_anomaly": 54.7185,
        "meta_ephemeris_type": 0,
        "meta_classification_type": "U",
        "meta_norad_cat_id": 30368,
        "meta_element_set_no": 999,
        "meta_rev_at_epoch": 94531,
        "meta_bstar": 0.00049996737,
        "meta_mean_motion_dot": 5.01e-06,
        "meta_mean_motion_ddot": 0,
        "tle_line1": "1 30368U 99025ACF 25337.23760135  .00000501  00000+0  49997-3 0  9998",
        "tle_line2": "2 30368  99.1887  83.4997 0186107 333.2228  54.7185 13.75351562945310"
      },
      "geometry": {
        "type": "Point",
        "coordinates": [
          94.95656805953313,
          -49.82224643709449
        ]
      }
    },
    {
      "type": "Feature",
      "properties": {
        "norad_id": 30369,
        "name": "FENGYUN 1C DEB",
        "group": "fengyun-1c-debris",
        "lat": 66.6042174349428,
        "lon": -45.51902605286653,
        "alt_km": 909.4702040120674,
        "timestamp": "2025-12-03T15:48:03.347274+00:00",
        "meta_object_name": "FENGYUN 1C DEB",
        "meta_object_id": "1999-025ACG",
        "meta_epoch": "2025-12-02T19:40:00.079968",
        "meta_mean_motion": 14.12044933,
        "meta_eccentricity": 0.00987553,
        "meta_inclination": 98.721,
        "meta_ra_of_asc_node": 334.4446,
        "meta_arg_of_pericenter": 223.8524,
        "meta_mean_anomaly": 262.7226,
        "meta_ephemeris_type": 0,
        "meta_classification_type": "U",
        "meta_norad_cat_id": 30369,
        "meta_element_set_no": 999,
        "meta_rev_at_epoch": 97106,
        "meta_bstar": 0.00027529109,
        "meta_mean_motion_dot": 4.85e-06,
        "meta_mean_motion_ddot": 0,
        "tle_line1": "1 30369U 99025ACG 25336.81944537  .00000485  00000+0  27529-3 0  9990",
        "tle_line2": "2 30369  98.7210 334.4446 0098755 223.8524 262.7226 14.12044933971069"
      },
      "geometry": {
        "type": "Point",
        "coordinates": [
          -45.51902605286653,
          66.6042174349428
        ]
      }
    },
    {
      "type": "Feature",
      "properties": {
        "norad_id": 30370,
        "name": "FENGYUN 1C DEB",
        "group": "fengyun-1c-debris",
        "lat": 55.53836608521993,
        "lon": -133.150429315402,
        "alt_km": 877.4641056720266,
        "timestamp": "2025-12-03T15:48:03.347283+00:00",
        "meta_object_name": "FENGYUN 1C DEB",
        "meta_object_id": "1999-025ACH",
        "meta_epoch": "2025-12-03T02:00:11.073600",
        "meta_mean_motion": 14.19072072,
        "meta_eccentricity": 0.00992527,
        "meta_inclination": 99.058,
        "meta_ra_of_asc_node": 32.8213,
        "meta_arg_of_pericenter": 345.1916,
        "meta_mean_anomaly": 82.0127,
        "meta_ephemeris_type": 0,
        "meta_classification_type": "U",
        "meta_norad_cat_id": 30370,
        "meta_element_set_no": 999,
        "meta_rev_at_epoch": 96957,
        "meta_bstar": 0.0014713497,
        "meta_mean_motion_dot": 3.184e-05,
        "meta_mean_motion_ddot": 0,
        "tle_line1": "1 30370U 99025ACH 25337.08346150  .00003184  00000+0  14713-2 0  9998",
        "tle_line2": "2 30370  99.0580  32.8213 0099252 345.1916  82.0127 14.19072072969570"
      },
      "geometry": {
        "type": "Point",
        "coordinates": [
          -133.150429315402,
          55.53836608521993
        ]
      }
    },
    {
      "type": "Feature",
      "properties": {
        "norad_id": 30371,
        "name": "FENGYUN 1C DEB",
        "group": "fengyun-1c-debris",
        "lat": 40.73649524068282,
        "lon": -151.73866208003724,
        "alt_km": 791.4942937666729,
        "timestamp": "2025-12-03T15:48:03.347292+00:00",
        "meta_object_name": "FENGYUN 1C DEB",
        "meta_object_id": "1999-025ACJ",
        "meta_epoch": "2025-12-03T02:00:32.992416",
        "meta_mean_motion": 14.30147637,
        "meta_eccentricity": 0.00072714,
        "meta_inclination": 98.5771,
        "meta_ra_of_asc_node": 20.2265,
        "meta_arg_of_pericenter": 7.73,
        "meta_mean_anomaly": 53.8742,
        "meta_ephemeris_type": 0,
        "meta_classification_type": "U",
        "meta_norad_cat_id": 30371,
        "meta_element_set_no": 999,
        "meta_rev_at_epoch": 97765,
        "meta_bstar": 0.0014154272,
        "meta_mean_motion_dot": 3.621e-05,
        "meta_mean_motion_ddot": 0,
        "tle_line1": "1 30371U 99025ACJ 25337.08371519  .00003621  00000+0  14154-2 0  9991",
        "tle_line2": "2 30371  98.5771  20.2265 0007271   7.7300  53.8742 14.30147637977653"
      },
      "geometry": {
        "type": "Point",
        "coordinates": [
          -151.73866208003724,
          40.73649524068282
        ]
      }
    },
    {
      "type": "Feature",
      "properties": {
        "norad_id": 30374,
        "name": "FENGYUN 1C DEB",
        "group": "fengyun-1c-debris",
        "lat": -65.29536413080966,
        "lon": -139.09146621529115,
        "alt_km": 700.037472389311,
        "timestamp": "2025-12-03T15:48:03.347301+00:00",
        "meta_object_name": "FENGYUN 1C DEB",
        "meta_object_id": "1999-025ACM",
        "meta_epoch": "2025-12-03T02:01:27.007968",
        "meta_mean_motion": 14.61023987,
        "meta_eccentricity": 0.00393048,
        "meta_inclination": 99.2734,
        "meta_ra_of_asc_node": 199.4632,
        "meta_arg_of_pericenter": 198.3111,
        "meta_mean_anomaly": 316.7875,
        "meta_ephemeris_type": 0,
        "meta_classification_type": "U",
        "meta_norad_cat_id": 30374,
        "meta_element_set_no": 999,
        "meta_rev_at_epoch": 98781,
        "meta_bstar": 0.002185413,
        "meta_mean_motion_dot": 0.00010799,
        "meta_mean_motion_ddot": 0,
        "tle_line1": "1 30374U 99025ACM 25337.08434037  .00010799  00000+0  21854-2 0  9998",
        "tle_line2": "2 30374  99.2734 199.4632 0039304 198.3111 316.7875 14.61023987987811"
      },
      "geometry": {
        "type": "Point",
        "coordinates": [
          -139.09146621529115,
          -65.29536413080966
        ]
      }
    },
    {
      "type": "Feature",
      "properties": {
        "norad_id": 30377,
        "name": "FENGYUN 1C DEB",
        "group": "fengyun-1c-debris",
        "lat": -43.554033410820914,
        "lon": 5.976513884646886,
        "alt_km": 824.4557524016182,
        "timestamp": "2025-12-03T15:48:03.347310+00:00",
        "meta_object_name": "FENGYUN 1C DEB",
        "meta_object_id": "1999-025ACQ",
        "meta_epoch": "2025-12-03T00:49:35.710176",
        "meta_mean_motion": 13.99155773,
        "meta_eccentricity": 0.01182411,
        "meta_inclination": 98.8949,
        "meta_ra_of_asc_node": 356.808,
        "meta_arg_of_pericenter": 293.7643,
        "meta_mean_anomaly": 120.5713,
        "meta_ephemeris_type": 0,
        "meta_classification_type": "U",
        "meta_norad_cat_id": 30377,
        "meta_element_set_no": 999,
        "meta_rev_at_epoch": 96071,
        "meta_bstar": 0.00037594345,
        "meta_mean_motion_dot": 5.34e-06,
        "meta_mean_motion_ddot": 0,
        "tle_line1": "1 30377U 99025ACQ 25337.03444109  .00000534  00000+0  37594-3 0  9992",
        "tle_line2": "2 30377  98.8949 356.8080 0118241 293.7643 120.5713 13.99155773960712"
      },
      "geometry": {
        "type": "Point",
        "coordinates": [
          5.976513884646886,
          -43.554033410820914
        ]
      }
    }
  ]
}